ZHONGXING-2C            
1 41021U 15063A   26158.86518718 -.00000308  00000+0  00000+0 0  9999
2 41021   0.2487  90.3227 0007643  95.6833 125.1422  1.00268683 38886
GSAT-15                 
1 41028U 15065A   26158.80719788 -.00000243  00000+0  00000+0 0  9990
2 41028   0.0486 113.5514 0004009 324.9922 201.7692  1.00271334 38705
BADR-7 (ARABSAT-6B)     
1 41029U 15065B   26158.70720123  .00000160  00000+0  00000+0 0  9992
2 41029   0.0385 237.8087 0003281 320.0746 338.8108  1.00270295 38676
LAOSAT 1                
1 41034U 15067A   26158.72749269 -.00000328  00000+0  00000+0 0  9991
2 41034   0.0381 195.2428 0002087 205.4762 245.7893  1.00266970 38763
TELSTAR 12V             
1 41036U 15068A   26158.84171001 -.00000104  00000+0  00000+0 0  9992
2 41036   0.0162  52.4389 0002392  21.8892 109.9397  1.00271371 38531
ELEKTRO-L 2             
1 41105U 15074A   26158.05735411 -.00000104  00000+0  00000+0 0  9990
2 41105   6.6683  70.6461 0001291 283.5448 267.4428  1.00272194 38407
COSMOS 2513             
1 41121U 15075A   26158.36140079 -.00000124  00000+0  00000+0 0  9995
2 41121   0.0781  99.8531 0003687 329.6914  36.5844  1.00272440 38450
EXPRESS-AMU1            
1 41191U 15082A   26158.85178065  .00000171  00000+0  00000+0 0  9991
2 41191   0.0018   7.1364 0002876  70.5419 161.3128  1.00269779 38179
GAOFEN-4                
1 41194U 15083A   26157.79613806 -.00000321  00000+0  00000+0 0  9992
2 41194   0.3301  83.7532 0004358 108.8481  94.9007  1.00269078 38425
BELINTERSAT-1           
1 41238U 16001A   26158.78359284  .00000122  00000+0  00000+0 0  9997
2 41238   0.0412 127.4504 0002129 267.7328 194.5995  1.00273178 38146
IRNSS-1E                
1 41241U 16003A   26158.65281905 -.00000294  00000+0  00000+0 0  9994
2 41241  33.2144  59.8883 0017905 179.4618   3.4375  1.00269529 37983
EUTELSAT 9B             
1 41310U 16005A   26158.84640729  .00000077  00000+0  00000+0 0  9995
2 41310   0.0569  71.1148 0001914 334.6374 164.1846  1.00272366 38028
SES-9                   
1 41380U 16013A   26158.34836683 -.00000331  00000+0  00000+0 0  9996
2 41380   0.0099 339.2741 0002383  98.5565  51.6383  1.00269544 37343
EUTELSAT 65 WEST A      
1 41382U 16014A   26158.76047705 -.00000261  00000+0  00000+0 0  9996
2 41382   0.0489   4.8520 0002356  62.5543  37.3368  1.00273079 37437
IRNSS-1F                
1 41384U 16015A   26158.56584963  .00000173  00000+0  00000+0 0  9990
2 41384   5.3250  96.9987 0016627 186.8286 208.4030  1.00277910 37572
BEIDOU-2 IGSO-6         
1 41434U 16021A   26157.01392066 -.00000145  00000+0  00000+0 0  9993
2 41434  60.2097  38.1520 0057221 231.5167  83.2996  1.00261920 37360
IRNSS-1G                
1 41469U 16027A   26158.79901956 -.00000318  00000+0  00000+0 0  9999
2 41469   5.1751  97.6903 0007477 352.5341 223.2052  1.00270887 37084
JCSAT-2B                
1 41471U 16028A   26158.73260603 -.00000150  00000+0  00000+0 0  9998
2 41471   0.0123 327.4954 0001025 112.3170 234.0642  1.00270200 37038
THAICOM 8               
1 41552U 16031A   26158.78887953 -.00000106  00000+0  00000+0 0  9991
2 41552   0.0644  44.4742 0003791  12.5643 201.6885  1.00270739 36625
INTELSAT 31 (IS-31)     
1 41581U 16035A   26158.39810845 -.00000137  00000+0  00000+0 0  9994
2 41581   0.0186 259.0986 0000826 334.9690  70.0155  1.00271889 36581
BEIDOU-2 G7             
1 41586U 16037A   26158.86657385 -.00000338  00000+0  00000+0 0  9994
2 41586   1.6962  69.2415 0007304   2.0999 247.4401  1.00269595  6791
ABS-2A (MONGOLSAT-1)    
1 41588U 16038A   26158.78818618  .00000000  00000+0  00000+0 0  9991
2 41588   0.0165 330.7494 0001357  57.3143 226.6213  1.00268425 36615
EUTELSAT 117 WEST B     
1 41589U 16038B   26158.53629918  .00000003  00000+0  00000+0 0  9991
2 41589   0.0038 134.8413 0000635 222.8867 334.2645  1.00272357 36567
BRISAT                  
1 41591U 16039A   26158.33169956 -.00000182  00000+0  00000+0 0  9993
2 41591   0.0151 297.3124 0002229 132.6846  95.6599  1.00270897 36514
ECHOSTAR 18             
1 41592U 16039B   26158.33345177 -.00000268  00000+0  00000+0 0  9990
2 41592   0.0178 341.3313 0001454 107.5478 225.5456  1.00270272 36529
MUOS-5                  
1 41622U 16041A   26158.68112671 -.00000101  00000+0  00000+0 0  9992
2 41622   2.2248 301.4567 0196830 260.8746 193.7235  1.00270852 36993
TIANTONG-1 1            
1 41725U 16048A   26158.86274797 -.00000303  00000+0  00000+0 0  9995
2 41725   3.8307  43.3318 0006100  42.2233 222.7254  1.00271485 36176
JCSAT-16                
1 41729U 16050A   26158.73061270 -.00000236  00000+0  00000+0 0  9993
2 41729   0.0177 337.3032 0001026 106.7280 219.0643  1.00270547 35979
USA 270                 
1 41744U 16052A   26156.41948030  .00000091  00000+0  00000+0 0  9991
2 41744   4.1687  77.3372 0008506 337.2537 174.5297  1.00283253 28016
USA 271                 
1 41745U 16052B   26156.30233265 -.00000347  00000+0  00000+0 0  9992
2 41745   4.1397  77.4076 0010790 157.5545 250.4094  1.00263603 27809
INTELSAT 36 (IS-36)     
1 41747U 16053A   26158.50171211 -.00000010  00000+0  00000+0 0  9998
2 41747   0.0098 351.0872 0001812 347.2262 166.7081  1.00271488 35868
INSAT-3DR               
1 41752U 16054A   26158.78801286 -.00000062  00000+0  00000+0 0  9994
2 41752   0.0811  87.6532 0010383 186.8461 339.3667  1.00270684 35723
