OBJECT_NAME,OBJECT_ID,EPOCH,MEAN_MOTION,ECCENTRICITY,INCLINATION,RA_OF_ASC_NODE,ARG_OF_PERICENTER,MEAN_ANOMALY,EPHEMERIS_TYPE,CLASSIFICATION_TYPE,NORAD_CAT_ID,ELEMENT_SET_NO,REV_AT_EPOCH,BSTAR,MEAN_MOTION_DOT,MEAN_MOTION_DDOT
ZHONGXING-2C,2015-063A,2026-06-07T20:45:52.172352,1.00268683,.0007643,0.2487,90.3227,95.6833,125.1422,0,U,41021,999,3888,0,-.308E-5,0
GSAT-15,2015-065A,2026-06-07T19:22:21.896832,1.00271334,.0004009,0.0486,113.5514,324.9922,201.7692,0,U,41028,999,3870,0,-.243E-5,0
BADR-7 (ARABSAT-6B),2015-065B,2026-06-07T16:58:22.186272,1.00270295,.0003281,0.0385,237.8087,320.0746,338.8108,0,U,41029,999,3867,0,.16E-5,0
LAOSAT 1,2015-067A,2026-06-07T17:27:35.368416,1.00266970,.0002087,0.0381,195.2428,205.4762,245.7893,0,U,41034,999,3876,0,-.328E-5,0
TELSTAR 12V,2015-068A,2026-06-07T20:12:03.744864,1.00271371,.0002392,0.0162,52.4389,21.8892,109.9397,0,U,41036,999,3853,0,-.104E-5,0
ELEKTRO-L 2,2015-074A,2026-06-07T01:22:35.395104,1.00272194,.0001291,6.6683,70.6461,283.5448,267.4428,0,U,41105,999,3840,0,-.104E-5,0
COSMOS 2513,2015-075A,2026-06-07T08:40:25.028256,1.00272440,.0003687,0.0781,99.8531,329.6914,36.5844,0,U,41121,999,3845,0,-.124E-5,0
EXPRESS-AMU1,2015-082A,2026-06-07T20:26:33.848160,1.00269779,.0002876,0.0018,7.1364,70.5419,161.3128,0,U,41191,999,3817,0,.171E-5,0
GAOFEN-4,2015-083A,2026-06-06T19:06:26.328384,1.00269078,.00043587,0.3301,83.7532,108.8481,94.9007,0,U,41194,999,3842,0,-.321E-5,0
BELINTERSAT-1,2016-001A,2026-06-07T18:48:22.421376,1.00273178,.0002129,0.0412,127.4504,267.7328,194.5995,0,U,41238,999,3814,0,.122E-5,0
IRNSS-1E,2016-003A,2026-06-07T15:40:03.565920,1.00269529,.0017905,33.2144,59.8883,179.4618,3.4375,0,U,41241,999,3798,0,-.294E-5,0
EUTELSAT 9B,2016-005A,2026-06-07T20:18:49.589856,1.00272366,.0001914,0.0569,71.1148,334.6374,164.1846,0,U,41310,999,3802,0,.77E-6,0
SES-9,2016-013A,2026-06-07T08:21:38.894112,1.00269544,.0002383,0.0099,339.2741,98.5565,51.6383,0,U,41380,999,3734,0,-.331E-5,0
EUTELSAT 65 WEST A,2016-014A,2026-06-07T18:15:05.217120,1.00273079,.0002356,0.0489,4.8520,62.5543,37.3368,0,U,41382,999,3743,0,-.261E-5,0
IRNSS-1F,2016-015A,2026-06-07T13:34:49.408032,1.00277910,.0016627,5.3250,96.9987,186.8286,208.4030,0,U,41384,999,3757,0,.173E-5,0
BEIDOU-2 IGSO-6,2016-021A,2026-06-06T00:20:02.745024,1.00261920,.00572211,60.2097,38.1520,231.5167,83.2996,0,U,41434,999,3736,0,-.145E-5,0
IRNSS-1G,2016-027A,2026-06-07T19:10:35.289984,1.00270887,.0007477,5.1751,97.6903,352.5341,223.2052,0,U,41469,999,3708,0,-.318E-5,0
JCSAT-2B,2016-028A,2026-06-07T17:34:57.160992,1.00270200,.0001025,0.0123,327.4954,112.3170,234.0642,0,U,41471,999,3703,0,-.15E-5,0
THAICOM 8,2016-031A,2026-06-07T18:55:59.191392,1.00270739,.0003791,0.0644,44.4742,12.5643,201.6885,0,U,41552,999,3662,0,-.106E-5,0
INTELSAT 31 (IS-31),2016-035A,2026-06-07T09:33:16.570080,1.00271889,.0000826,0.0186,259.0986,334.9690,70.0155,0,U,41581,999,3658,0,-.137E-5,0
BEIDOU-2 G7,2016-037A,2026-06-07T20:47:51.980640,1.00269595,.0007304,1.6962,69.2415,2.0999,247.4401,0,U,41586,999,679,0,-.338E-5,0
ABS-2A (MONGOLSAT-1),2016-038A,2026-06-07T18:54:59.285952,1.00268425,.0001357,0.0165,330.7494,57.3143,226.6213,0,U,41588,999,3661,0,0,0
EUTELSAT 117 WEST B,2016-038B,2026-06-07T12:52:16.249152,1.00272357,.0000635,0.0038,134.8413,222.8867,334.2645,0,U,41589,999,3656,0,.3E-7,0
BRISAT,2016-039A,2026-06-07T07:57:38.841984,1.00270897,.0002229,0.0151,297.3124,132.6846,95.6599,0,U,41591,999,3651,0,-.182E-5,0
ECHOSTAR 18,2016-039B,2026-06-07T08:00:10.232928,1.00270272,.0001454,0.0178,341.3313,107.5478,225.5456,0,U,41592,999,3652,0,-.268E-5,0
MUOS-5,2016-041A,2026-06-07T16:20:49.347744,1.00270852,.019683,2.2248,301.4567,260.8746,193.7235,0,U,41622,999,3699,0,-.101E-5,0
TIANTONG-1 1,2016-048A,2026-06-07T20:42:21.424608,1.00271485,.00061,3.8307,43.3318,42.2233,222.7254,0,U,41725,999,3617,0,-.303E-5,0
JCSAT-16,2016-050A,2026-06-07T17:32:04.937280,1.00270547,.0001026,0.0177,337.3032,106.7280,219.0643,0,U,41729,999,3597,0,-.236E-5,0
USA 270,2016-052A,2026-06-05T10:04:03.097920,1.00283253,.0008506,4.1687,77.3372,337.2537,174.5297,0,U,41744,999,2801,0,.91E-6,0
USA 271,2016-052B,2026-06-05T07:15:21.540960,1.00263603,.001079,4.1397,77.4076,157.5545,250.4094,0,U,41745,999,2780,0,-.347E-5,0
INTELSAT 36 (IS-36),2016-053A,2026-06-07T12:02:27.926304,1.00271488,.0001812,0.0098,351.0872,347.2262,166.7081,0,U,41747,999,3586,0,-.1E-6,0
INSAT-3DR,2016-054A,2026-06-07T18:54:44.311104,1.00270684,.0010383,0.0811,87.6532,186.8461,339.3667,0,U,41752,999,3572,0,-.62E-6,0
